{
  "norad_id": 53477,
  "name": "STARLINK-4412",
  "history": [
    {
      "epoch": "2026-03-28T22:00:01.999584Z",
      "apogee_km": 536.7307105621458,
      "perigee_km": 533.9444420384052,
      "latitude_deg": -39.81991802535568,
      "longitude_deg": -133.58961694033277,
      "height_km": 551.4791137006645,
      "semi_major_axis_km": 6913.474576300276,
      "eccentricity": 0.00020151,
      "inclination_deg": 97.6038,
      "raan_deg": 209.1043,
      "arg_perigee_deg": 91.8115,
      "mean_anomaly_deg": 128.1387,
      "mean_motion_rev_day": 15.10282558
    },
    {
      "epoch": "2026-03-29T04:00:01.999584Z",
      "apogee_km": 536.8502796962894,
      "perigee_km": 534.1525779813564,
      "latitude_deg": 41.28517108290671,
      "longitude_deg": 149.4626088499581,
      "height_km": 540.7072737438993,
      "semi_major_axis_km": 6913.638428838823,
      "eccentricity": 0.0001951,
      "inclination_deg": 97.6034,
      "raan_deg": 209.3535,
      "arg_perigee_deg": 86.8774,
      "mean_anomaly_deg": 51.4646,
      "mean_motion_rev_day": 15.10228868
    }
  ]
}